[{"OBJECT_NAME":"TIANMU-1 22","OBJECT_ID":"2023-208D","EPOCH":"2026-03-09T22:39:05.738688","MEAN_MOTION":15.29457749,"ECCENTRICITY":0.00031332,"INCLINATION":97.4379,"RA_OF_ASC_NODE":184.9419,"ARG_OF_PERICENTER":351.9312,"MEAN_ANOMALY":8.1877,"EPHEMERIS_TYPE":0,"CLASSIFICATION_TYPE":"U","NORAD_CAT_ID":58663,"ELEMENT_SET_NO":999,"REV_AT_EPOCH":12215,"BSTAR":0.00038239675,"MEAN_MOTION_DOT":0.00010851,"MEAN_MOTION_DDOT":0},{"OBJECT_NAME":"STARLINK-32807","OBJECT_ID":"2025-019S","EPOCH":"2026-03-09T01:55:27.059520","MEAN_MOTION":15.2756908,"ECCENTRICITY":9.839e-5,"INCLINATION":42.9955,"RA_OF_ASC_NODE":84.9826,"ARG_OF_PERICENTER":150.1615,"MEAN_ANOMALY":209.9293,"EPHEMERIS_TYPE":0,"CLASSIFICATION_TYPE":"U","NORAD_CAT_ID":62845,"ELEMENT_SET_NO":999,"REV_AT_EPOCH":6224,"BSTAR":0.00096135463,"MEAN_MOTION_DOT":0.00026278,"MEAN_MOTION_DDOT":0}]
